[{"OBJECT_NAME":"STARLINK-5488","OBJECT_ID":"2023-094AJ","EPOCH":"2026-03-09T06:10:23.392416","MEAN_MOTION":15.03027168,"ECCENTRICITY":0.00027415,"INCLINATION":43.0024,"RA_OF_ASC_NODE":19.7799,"ARG_OF_PERICENTER":245.5795,"MEAN_ANOMALY":114.4761,"EPHEMERIS_TYPE":0,"CLASSIFICATION_TYPE":"U","NORAD_CAT_ID":57250,"ELEMENT_SET_NO":999,"REV_AT_EPOCH":14720,"BSTAR":0.0043847897,"MEAN_MOTION_DOT":0.00060325,"MEAN_MOTION_DDOT":0},{"OBJECT_NAME":"SL-3 DEB","OBJECT_ID":"1988-032C","EPOCH":"2026-03-09T20:54:05.348736","MEAN_MOTION":15.06065434,"ECCENTRICITY":0.00240661,"INCLINATION":97.6252,"RA_OF_ASC_NODE":41.5186,"ARG_OF_PERICENTER":162.4496,"MEAN_ANOMALY":255.7854,"EPHEMERIS_TYPE":0,"CLASSIFICATION_TYPE":"U","NORAD_CAT_ID":24893,"ELEMENT_SET_NO":999,"REV_AT_EPOCH":81391,"BSTAR":0.00022425917,"MEAN_MOTION_DOT":3.232e-5,"MEAN_MOTION_DDOT":0}]
